{"type": "FeatureCollection", "features": [{"type": "Feature", "properties": {"norad_id": 26766, "name": "INTELSAT 10 (IS-10)", "group": "intelsat", "lat": 3.578310729684773, "lon": -143.31292574202732, "alt_km": 36108.74371114708, "timestamp": "2025-12-02T21:34:00.940627+00:00", "meta": {"OBJECT_NAME": "INTELSAT 10 (IS-10)", "OBJECT_ID": "2001-019A", "EPOCH": "2025-12-02T11:35:38.855904", "MEAN_MOTION": 0.99077787, "ECCENTRICITY": 0.0007699, "INCLINATION": 8.6036, "RA_OF_ASC_NODE": 61.2568, "ARG_OF_PERICENTER": 218.3784, "MEAN_ANOMALY": 148.6829, "EPHEMERIS_TYPE": 0, "CLASSIFICATION_TYPE": "U", "NORAD_CAT_ID": 26766, "ELEMENT_SET_NO": 999, "REV_AT_EPOCH": 4363, "BSTAR": 0, "MEAN_MOTION_DOT": -1.25e-06, "MEAN_MOTION_DDOT": 0}, "tle": {"line1": "1 26766U 01019A   25336.48308861 -.00000125  00000+0  00000+0 0  9992", "line2": "2 26766   8.6036  61.2568 0007699 218.3784 148.6829  0.99077787 43632"}}, "geometry": {"type": "Point", "coordinates": [-143.31292574202732, 3.578310729684773]}}, {"type": "Feature", "properties": {"norad_id": 26900, "name": "INTELSAT 902 (IS-902)", "group": "intelsat", "lat": -5.612323900643905, "lon": -14.588732350505625, "alt_km": 35789.28512612927, "timestamp": "2025-12-02T21:34:00.940651+00:00", "meta": {"OBJECT_NAME": "INTELSAT 902 (IS-902)", "OBJECT_ID": "2001-039A", "EPOCH": "2025-12-01T16:59:59.311968", "MEAN_MOTION": 1.00270327, "ECCENTRICITY": 0.00043097, "INCLINATION": 5.6187, "RA_OF_ASC_NODE": 74.2002, "ARG_OF_PERICENTER": 175.119, "MEAN_ANOMALY": 26.3816, "EPHEMERIS_TYPE": 0, "CLASSIFICATION_TYPE": "U", "NORAD_CAT_ID": 26900, "ELEMENT_SET_NO": 999, "REV_AT_EPOCH": 8871, "BSTAR": 0, "MEAN_MOTION_DOT": -2.63e-06, "MEAN_MOTION_DDOT": 0}, "tle": {"line1": "1 26900U 01039A   25335.70832537 -.00000263  00000+0  00000+0 0  9993", "line2": "2 26900   5.6187  74.2002 0004309 175.1190  26.3816  1.00270327 88713"}}, "geometry": {"type": "Point", "coordinates": [-14.588732350505625, -5.612323900643905]}}, {"type": "Feature", "properties": {"norad_id": 27380, "name": "INTELSAT 904 (IS-904)", "group": "intelsat", "lat": -5.924216388375288, "lon": 4.134923546594393, "alt_km": 35788.12054240283, "timestamp": "2025-12-02T21:34:00.940667+00:00", "meta": {"OBJECT_NAME": "INTELSAT 904 (IS-904)", "OBJECT_ID": "2002-007A", "EPOCH": "2025-12-02T03:21:43.155648", "MEAN_MOTION": 1.0026967, "ECCENTRICITY": 0.0001502, "INCLINATION": 6.4264, "RA_OF_ASC_NODE": 71.5525, "ARG_OF_PERICENTER": 197.1555, "MEAN_ANOMALY": 181.4839, "EPHEMERIS_TYPE": 0, "CLASSIFICATION_TYPE": "U", "NORAD_CAT_ID": 27380, "ELEMENT_SET_NO": 999, "REV_AT_EPOCH": 4979, "BSTAR": 0, "MEAN_MOTION_DOT": -2.07e-06, "MEAN_MOTION_DDOT": 0}, "tle": {"line1": "1 27380U 02007A   25336.14008282 -.00000207  00000+0  00000+0 0  9991", "line2": "2 27380   6.4264  71.5525 0001502 197.1555 181.4839  1.00269670 49794"}}, "geometry": {"type": "Point", "coordinates": [4.134923546594393, -5.924216388375288]}}, {"type": "Feature", "properties": {"norad_id": 27426, "name": "DIRECTV 5 (TEMPO 1)", "group": "intelsat", "lat": -2.0414873150544848, "lon": -74.69684147324595, "alt_km": 35771.82086270113, "timestamp": "2025-12-02T21:34:00.940680+00:00", "meta": {"OBJECT_NAME": "DIRECTV 5 (TEMPO 1)", "OBJECT_ID": "2002-023A", "EPOCH": "2025-12-02T08:35:38.815296", "MEAN_MOTION": 1.00271138, "ECCENTRICITY": 0.0003699, "INCLINATION": 4.3735, "RA_OF_ASC_NODE": 77.7745, "ARG_OF_PERICENTER": 187.6548, "MEAN_ANOMALY": 184.8233, "EPHEMERIS_TYPE": 0, "CLASSIFICATION_TYPE": "U", "NORAD_CAT_ID": 27426, "ELEMENT_SET_NO": 999, "REV_AT_EPOCH": 8615, "BSTAR": 0, "MEAN_MOTION_DOT": -3.7e-07, "MEAN_MOTION_DDOT": 0}, "tle": {"line1": "1 27426U 02023A   25336.35808814 -.00000037  00000+0  00000+0 0  9993", "line2": "2 27426   4.3735  77.7745 0003699 187.6548 184.8233  1.00271138 86150"}}, "geometry": {"type": "Point", "coordinates": [-74.69684147324595, -2.0414873150544848]}}, {"type": "Feature", "properties": {"norad_id": 27438, "name": "INTELSAT 905 (IS-905)", "group": "intelsat", "lat": -0.6901021154162628, "lon": -101.74415559541212, "alt_km": 35772.81472254769, "timestamp": "2025-12-02T21:34:00.940693+00:00", "meta": {"OBJECT_NAME": "INTELSAT 905 (IS-905)", "OBJECT_ID": "2002-027A", "EPOCH": "2025-12-02T09:56:38.678784", "MEAN_MOTION": 1.00272936, "ECCENTRICITY": 0.0003069, "INCLINATION": 6.2577, "RA_OF_ASC_NODE": 72.1733, "ARG_OF_PERICENTER": 187.1236, "MEAN_ANOMALY": 184.1903, "EPHEMERIS_TYPE": 0, "CLASSIFICATION_TYPE": "U", "NORAD_CAT_ID": 27438, "ELEMENT_SET_NO": 999, "REV_AT_EPOCH": 4939, "BSTAR": 0, "MEAN_MOTION_DOT": 1.12e-06, "MEAN_MOTION_DDOT": 0}, "tle": {"line1": "1 27438U 02027A   25336.41433656  .00000112  00000+0  00000+0 0  9998", "line2": "2 27438   6.2577  72.1733 0003069 187.1236 184.1903  1.00272936 49393"}}, "geometry": {"type": "Point", "coordinates": [-101.74415559541212, -0.6901021154162628]}}, {"type": "Feature", "properties": {"norad_id": 27445, "name": "GALAXY 3C (G-3C)", "group": "intelsat", "lat": -2.0907570848537262, "lon": -59.41098705259695, "alt_km": 35789.72232627748, "timestamp": "2025-12-02T21:34:00.940705+00:00", "meta": {"OBJECT_NAME": "GALAXY 3C (G-3C)", "OBJECT_ID": "2002-030A", "EPOCH": "2025-12-02T08:19:38.698752", "MEAN_MOTION": 1.00270405, "ECCENTRICITY": 0.0001307, "INCLINATION": 3.2363, "RA_OF_ASC_NODE": 80.612, "ARG_OF_PERICENTER": 97.2134, "MEAN_ANOMALY": 283.6835, "EPHEMERIS_TYPE": 0, "CLASSIFICATION_TYPE": "U", "NORAD_CAT_ID": 27445, "ELEMENT_SET_NO": 999, "REV_AT_EPOCH": 4452, "BSTAR": 0, "MEAN_MOTION_DOT": -1.32e-06, "MEAN_MOTION_DDOT": 0}, "tle": {"line1": "1 27445U 02030A   25336.34697568 -.00000132  00000+0  00000+0 0  9999", "line2": "2 27445   3.2363  80.6120 0001307  97.2134 283.6835  1.00270405 44524"}}, "geometry": {"type": "Point", "coordinates": [-59.41098705259695, -2.0907570848537262]}}, {"type": "Feature", "properties": {"norad_id": 27513, "name": "INTELSAT 906 (IS-906)", "group": "intelsat", "lat": 2.1942452410623097, "lon": 99.50462815379129, "alt_km": 35810.61195683875, "timestamp": "2025-12-02T21:34:00.940718+00:00", "meta": {"OBJECT_NAME": "INTELSAT 906 (IS-906)", "OBJECT_ID": "2002-041A", "EPOCH": "2025-12-02T00:41:51.813024", "MEAN_MOTION": 1.00272894, "ECCENTRICITY": 0.00061114, "INCLINATION": 5.3019, "RA_OF_ASC_NODE": 75.3582, "ARG_OF_PERICENTER": 191.023, "MEAN_ANOMALY": 239.354, "EPHEMERIS_TYPE": 0, "CLASSIFICATION_TYPE": "U", "NORAD_CAT_ID": 27513, "ELEMENT_SET_NO": 999, "REV_AT_EPOCH": 8505, "BSTAR": 0, "MEAN_MOTION_DOT": 3.2e-07, "MEAN_MOTION_DDOT": 0}, "tle": {"line1": "1 27513U 02041A   25336.02907191  .00000032  00000+0  00000+0 0  9996", "line2": "2 27513   5.3019  75.3582 0006111 191.0230 239.3540  1.00272894 85050"}}, "geometry": {"type": "Point", "coordinates": [99.50462815379129, 2.1942452410623097]}}, {"type": "Feature", "properties": {"norad_id": 27954, "name": "GALAXY 13 (HORIZONS-1)", "group": "intelsat", "lat": 0.3038083203404167, "lon": -114.53126517908495, "alt_km": 35777.043487250434, "timestamp": "2025-12-02T21:34:00.940730+00:00", "meta": {"OBJECT_NAME": "GALAXY 13 (HORIZONS-1)", "OBJECT_ID": "2003-044A", "EPOCH": "2025-12-02T10:12:38.537856", "MEAN_MOTION": 1.0027209, "ECCENTRICITY": 0.000209, "INCLINATION": 0.9089, "RA_OF_ASC_NODE": 86.5962, "ARG_OF_PERICENTER": 159.2396, "MEAN_ANOMALY": 188.8459, "EPHEMERIS_TYPE": 0, "CLASSIFICATION_TYPE": "U", "NORAD_CAT_ID": 27954, "ELEMENT_SET_NO": 999, "REV_AT_EPOCH": 4459, "BSTAR": 0, "MEAN_MOTION_DOT": 1.53e-06, "MEAN_MOTION_DDOT": 0}, "tle": {"line1": "1 27954U 03044A   25336.42544604  .00000153  00000+0  00000+0 0  9993", "line2": "2 27954   0.9089  86.5962 0002090 159.2396 188.8459  1.00272090 44593"}}, "geometry": {"type": "Point", "coordinates": [-114.53126517908495, 0.3038083203404167]}}, {"type": "Feature", "properties": {"norad_id": 28358, "name": "INTELSAT 10-02", "group": "intelsat", "lat": 0.008264399229618987, "lon": 34.49523393115459, "alt_km": 35788.23137474286, "timestamp": "2025-12-02T21:34:00.940742+00:00", "meta": {"OBJECT_NAME": "INTELSAT 10-02", "OBJECT_ID": "2004-022A", "EPOCH": "2025-12-02T08:38:39.570144", "MEAN_MOTION": 1.00271752, "ECCENTRICITY": 0.0001137, "INCLINATION": 0.0384, "RA_OF_ASC_NODE": 84.83, "ARG_OF_PERICENTER": 193.1613, "MEAN_ANOMALY": 282.1496, "EPHEMERIS_TYPE": 0, "CLASSIFICATION_TYPE": "U", "NORAD_CAT_ID": 28358, "ELEMENT_SET_NO": 999, "REV_AT_EPOCH": 7858, "BSTAR": 0, "MEAN_MOTION_DOT": 1e-07, "MEAN_MOTION_DDOT": 0}, "tle": {"line1": "1 28358U 04022A   25336.36018021  .00000010  00000+0  00000+0 0  9993", "line2": "2 28358   0.0384  84.8300 0001137 193.1613 282.1496  1.00271752 78587"}}, "geometry": {"type": "Point", "coordinates": [34.49523393115459, 0.008264399229618987]}}, {"type": "Feature", "properties": {"norad_id": 28626, "name": "XM-3 (RHYTHM)", "group": "intelsat", "lat": 0.10624943815079774, "lon": -163.53585926750617, "alt_km": 36162.477347514665, "timestamp": "2025-12-02T21:34:00.940754+00:00", "meta": {"OBJECT_NAME": "XM-3 (RHYTHM)", "OBJECT_ID": "2005-008A", "EPOCH": "2025-12-01T16:19:10.718688", "MEAN_MOTION": 0.98955107, "ECCENTRICITY": 8.384e-05, "INCLINATION": 0.1433, "RA_OF_ASC_NODE": 80.6256, "ARG_OF_PERICENTER": 270.4663, "MEAN_ANOMALY": 131.2697, "EPHEMERIS_TYPE": 0, "CLASSIFICATION_TYPE": "U", "NORAD_CAT_ID": 28626, "ELEMENT_SET_NO": 999, "REV_AT_EPOCH": 4064, "BSTAR": 0, "MEAN_MOTION_DOT": -2.1e-06, "MEAN_MOTION_DDOT": 0}, "tle": {"line1": "1 28626U 05008A   25335.67998517 -.00000210  00000+0  00000+0 0  9999", "line2": "2 28626   0.1433  80.6256 0000838 270.4663 131.2697  0.98955107 40648"}}, "geometry": {"type": "Point", "coordinates": [-163.53585926750617, 0.10624943815079774]}}]}